{"type": "FeatureCollection", "features": [ {"type": "Feature", "properties": {"norad_id": 38755, "name": "SPOT 6", "group": "resource", "lat": -34.105848762525596, "lon": -135.96430846122942, "alt_km": 704.2837347531804, "timestamp": "2025-12-10T18:56:59.718838+00:00", "meta": {"OBJECT_NAME": "SPOT 6", "OBJECT_ID": "2012-047A", "EPOCH": "2025-12-10T11:23:04.220160", "MEAN_MOTION": 14.58600026, "ECCENTRICITY": 0.0001097, "INCLINATION": 98.157, "RA_OF_ASC_NODE": 49.3003, "ARG_OF_PERICENTER": 95.7769, "MEAN_ANOMALY": 264.3555, "EPHEMERIS_TYPE": 0, "CLASSIFICATION_TYPE": "U", "NORAD_CAT_ID": 38755, "ELEMENT_SET_NO": 999, "REV_AT_EPOCH": 70554, "BSTAR": 0.00016389, "MEAN_MOTION_DOT": 7.17e-06, "MEAN_MOTION_DDOT": 0}, "tle": {"line1": "1 38755U 12047A   25344.47435440  .00000717  00000+0  16389-3 0  9995", "line2": "2 38755  98.1570  49.3003 0001097  95.7769 264.3555 14.58600026705542"}}, "geometry": {"type": "Point", "coordinates": [-135.96430846122942, -34.105848762525596]}}, {"type": "Feature", "properties": {"norad_id": 39019, "name": "PLEIADES 1B", "group": "resource", "lat": 65.33460495921787, "lon": -104.27575080970836, "alt_km": 690.7474686505484, "timestamp": "2025-12-10T18:56:59.718848+00:00", "meta": {"OBJECT_NAME": "PLEIADES 1B", "OBJECT_ID": "2012-068A", "EPOCH": "2025-12-10T11:50:47.719104", "MEAN_MOTION": 14.58549782, "ECCENTRICITY": 0.0001232, "INCLINATION": 98.1793, "RA_OF_ASC_NODE": 57.1806, "ARG_OF_PERICENTER": 81.1215, "MEAN_ANOMALY": 279.0124, "EPHEMERIS_TYPE": 0, "CLASSIFICATION_TYPE": "U", "NORAD_CAT_ID": 39019, "ELEMENT_SET_NO": 999, "REV_AT_EPOCH": 69334, "BSTAR": 0.0001782, "MEAN_MOTION_DOT": 7.83e-06, "MEAN_MOTION_DDOT": 0}, "tle": {"line1": "1 39019U 12068A   25344.49360786  .00000783  00000+0  17820-3 0  9998", "line2": "2 39019  98.1793  57.1806 0001232  81.1215 279.0124 14.58549782693347"}}, "geometry": {"type": "Point", "coordinates": [-104.27575080970836, 65.33460495921787]}}, {"type": "Feature", "properties": {"norad_id": 39030, "name": "GOKTURK 2", "group": "resource", "lat": -31.183880609555587, "lon": 1.8484087963934313, "alt_km": 650.5100055987114, "timestamp": "2025-12-10T18:56:59.718858+00:00", "meta": {"OBJECT_NAME": "GOKTURK 2", "OBJECT_ID": "2012-073A", "EPOCH": "2025-12-10T13:06:40.840992", "MEAN_MOTION": 14.75286618, "ECCENTRICITY": 9.52e-05, "INCLINATION": 97.6892, "RA_OF_ASC_NODE": 186.3075, "ARG_OF_PERICENTER": 103.5695, "MEAN_ANOMALY": 256.5621, "EPHEMERIS_TYPE": 0, "CLASSIFICATION_TYPE": "U", "NORAD_CAT_ID": 39030, "ELEMENT_SET_NO": 999, "REV_AT_EPOCH": 69669, "BSTAR": 0.00015767, "MEAN_MOTION_DOT": 1.02e-05, "MEAN_MOTION_DDOT": 0}, "tle": {"line1": "1 39030U 12073A   25344.54630603  .00001020  00000+0  15767-3 0  9994", "line2": "2 39030  97.6892 186.3075 0000952 103.5695 256.5621 14.75286618696694"}}, "geometry": {"type": "Point", "coordinates": [1.8484087963934313, -31.183880609555587]}}, {"type": "Feature", "properties": {"norad_id": 39084, "name": "LANDSAT 8", "group": "resource", "lat": -65.31892731261189, "lon": 71.19647553712723, "alt_km": 710.4347714623882, "timestamp": "2025-12-10T18:56:59.718868+00:00", "meta": {"OBJECT_NAME": "LANDSAT 8", "OBJECT_ID": "2013-008A", "EPOCH": "2025-12-10T11:00:54.035136", "MEAN_MOTION": 14.5711056, "ECCENTRICITY": 0.0001108, "INCLINATION": 98.2075, "RA_OF_ASC_NODE": 52.566, "ARG_OF_PERICENTER": 87.4004, "MEAN_ANOMALY": 272.7321, "EPHEMERIS_TYPE": 0, "CLASSIFICATION_TYPE": "U", "NORAD_CAT_ID": 39084, "ELEMENT_SET_NO": 999, "REV_AT_EPOCH": 67041, "BSTAR": 0.00016177, "MEAN_MOTION_DOT": 6.84e-06, "MEAN_MOTION_DDOT": 0}, "tle": {"line1": "1 39084U 13008A   25344.45895874  .00000684  00000+0  16177-3 0  9996", "line2": "2 39084  98.2075  52.5660 0001108  87.4004 272.7321 14.57110560670416"}}, "geometry": {"type": "Point", "coordinates": [71.19647553712723, -65.31892731261189]}}, {"type": "Feature", "properties": {"norad_id": 39086, "name": "SARAL", "group": "resource", "lat": 81.44186731887895, "lon": 80.11291786658329, "alt_km": 773.1970416786171, "timestamp": "2025-12-10T18:56:59.718877+00:00", "meta": {"OBJECT_NAME": "SARAL", "OBJECT_ID": "2013-009A", "EPOCH": "2025-12-10T11:49:41.782944", "MEAN_MOTION": 14.3275584, "ECCENTRICITY": 0.0002823, "INCLINATION": 98.5503, "RA_OF_ASC_NODE": 168.4526, "ARG_OF_PERICENTER": 112.8237, "MEAN_ANOMALY": 247.3245, "EPHEMERIS_TYPE": 0, "CLASSIFICATION_TYPE": "U", "NORAD_CAT_ID": 39086, "ELEMENT_SET_NO": 999, "REV_AT_EPOCH": 66858, "BSTAR": 9.4163e-05, "MEAN_MOTION_DOT": 2.13e-06, "MEAN_MOTION_DDOT": 0}, "tle": {"line1": "1 39086U 13009A   25344.49284471  .00000213  00000+0  94163-4 0  9998", "line2": "2 39086  98.5503 168.4526 0002823 112.8237 247.3245 14.32755840668588"}}, "geometry": {"type": "Point", "coordinates": [80.11291786658329, 81.44186731887895]}}, {"type": "Feature", "properties": {"norad_id": 39150, "name": "GAOFEN-1", "group": "resource", "lat": -76.63763699003428, "lon": 91.42739651401916, "alt_km": 656.0779801718536, "timestamp": "2025-12-10T18:56:59.718888+00:00", "meta": {"OBJECT_NAME": "GAOFEN-1", "OBJECT_ID": "2013-018A", "EPOCH": "2025-12-10T11:10:38.277984", "MEAN_MOTION": 14.76527636, "ECCENTRICITY": 0.0018013, "INCLINATION": 97.9326, "RA_OF_ASC_NODE": 55.1651, "ARG_OF_PERICENTER": 149.8946, "MEAN_ANOMALY": 210.3304, "EPHEMERIS_TYPE": 0, "CLASSIFICATION_TYPE": "U", "NORAD_CAT_ID": 39150, "ELEMENT_SET_NO": 999, "REV_AT_EPOCH": 68039, "BSTAR": 0.00017441, "MEAN_MOTION_DOT": 1.168e-05, "MEAN_MOTION_DDOT": 0}, "tle": {"line1": "1 39150U 13018A   25344.46572081  .00001168  00000+0  17441-3 0  9997", "line2": "2 39150  97.9326  55.1651 0018013 149.8946 210.3304 14.76527636680399"}}, "geometry": {"type": "Point", "coordinates": [91.42739651401916, -76.63763699003428]}}, {"type": "Feature", "properties": {"norad_id": 39160, "name": "VNREDSAT 1", "group": "resource", "lat": 63.37472889239588, "lon": 23.97374260083948, "alt_km": 670.2457799999011, "timestamp": "2025-12-10T18:56:59.718898+00:00", "meta": {"OBJECT_NAME": "VNREDSAT 1", "OBJECT_ID": "2013-021B", "EPOCH": "2025-12-10T12:05:57.764256", "MEAN_MOTION": 14.64917543, "ECCENTRICITY": 0.0001327, "INCLINATION": 97.9372, "RA_OF_ASC_NODE": 39.8571, "ARG_OF_PERICENTER": 78.0818, "MEAN_ANOMALY": 282.0534, "EPHEMERIS_TYPE": 0, "CLASSIFICATION_TYPE": "U", "NORAD_CAT_ID": 39160, "ELEMENT_SET_NO": 999, "REV_AT_EPOCH": 67266, "BSTAR": 0.00020507, "MEAN_MOTION_DOT": 1.051e-05, "MEAN_MOTION_DDOT": 0}, "tle": {"line1": "1 39160U 13021B   25344.50414079  .00001051  00000+0  20507-3 0  9997", "line2": "2 39160  97.9372  39.8571 0001327  78.0818 282.0534 14.64917543672661"}}, "geometry": {"type": "Point", "coordinates": [23.97374260083948, 63.37472889239588]}}, {"type": "Feature", "properties": {"norad_id": 39227, "name": "ARIRANG-5 (KOMPSAT-5)", "group": "resource", "lat": -45.1236156036882, "lon": -18.59977808751204, "alt_km": 562.3648976811328, "timestamp": "2025-12-10T18:56:59.718908+00:00", "meta": {"OBJECT_NAME": "ARIRANG-5 (KOMPSAT-5)", "OBJECT_ID": "2013-042A", "EPOCH": "2025-12-10T11:33:56.609280", "MEAN_MOTION": 15.04490416, "ECCENTRICITY": 0.0003776, "INCLINATION": 97.6143, "RA_OF_ASC_NODE": 168.8183, "ARG_OF_PERICENTER": 61.6852, "MEAN_ANOMALY": 298.4754, "EPHEMERIS_TYPE": 0, "CLASSIFICATION_TYPE": "U", "NORAD_CAT_ID": 39227, "ELEMENT_SET_NO": 999, "REV_AT_EPOCH": 67548, "BSTAR": 0.0002622, "MEAN_MOTION_DOT": 3.61e-05, "MEAN_MOTION_DDOT": 0}, "tle": {"line1": "1 39227U 13042A   25344.48190520  .00003610  00000+0  26220-3 0  9994", "line2": "2 39227  97.6143 168.8183 0003776  61.6852 298.4754 15.04490416675484"}}, "geometry": {"type": "Point", "coordinates": [-18.59977808751204, -45.1236156036882]}}, {"type": "Feature", "properties": {"norad_id": 39418, "name": "SKYSAT-A", "group": "resource", "lat": -8.750581694190876, "lon": -146.0909666048605, "alt_km": 527.3556319416884, "timestamp": "2025-12-10T18:56:59.718918+00:00", "meta": {"OBJECT_NAME": "SKYSAT-A", "OBJECT_ID": "2013-066C", "EPOCH": "2025-12-10T10:10:19.642080", "MEAN_MOTION": 15.11576065, "ECCENTRICITY": 0.0020667, "INCLINATION": 97.4109, "RA_OF_ASC_NODE": 34.7024, "ARG_OF_PERICENTER": 245.1831, "MEAN_ANOMALY": 114.725, "EPHEMERIS_TYPE": 0, "CLASSIFICATION_TYPE": "U", "NORAD_CAT_ID": 39418, "ELEMENT_SET_NO": 999, "REV_AT_EPOCH": 65995, "BSTAR": 0.00036303, "MEAN_MOTION_DOT": 6.128e-05, "MEAN_MOTION_DDOT": 0}, "tle": {"line1": "1 39418U 13066C   25344.42383845  .00006128  00000+0  36303-3 0  9990", "line2": "2 39418  97.4109  34.7024 0020667 245.1831 114.7250 15.11576065659953"}}, "geometry": {"type": "Point", "coordinates": [-146.0909666048605, -8.750581694190876]}}, {"type": "Feature", "properties": {"norad_id": 39419, "name": "DUBAISAT-2", "group": "resource", "lat": -6.282017062674372, "lon": -23.918038252476798, "alt_km": 538.346069698594, "timestamp": "2025-12-10T18:56:59.718928+00:00", "meta": {"OBJECT_NAME": "DUBAISAT-2", "OBJECT_ID": "2013-066D", "EPOCH": "2025-12-10T11:01:01.325568", "MEAN_MOTION": 15.08324374, "ECCENTRICITY": 0.0010898, "INCLINATION": 97.445, "RA_OF_ASC_NODE": 334.9368, "ARG_OF_PERICENTER": 329.4056, "MEAN_ANOMALY": 30.6536, "EPHEMERIS_TYPE": 0, "CLASSIFICATION_TYPE": "U", "NORAD_CAT_ID": 39419, "ELEMENT_SET_NO": 999, "REV_AT_EPOCH": 65792, "BSTAR": 0.00062405, "MEAN_MOTION_DOT": 9.643e-05, "MEAN_MOTION_DDOT": 0}, "tle": {"line1": "1 39419U 13066D   25344.45904312  .00009643  00000+0  62405-3 0  9999", "line2": "2 39419  97.4450 334.9368 0010898 329.4056  30.6536 15.08324374657927"}}, "geometry": {"type": "Point", "coordinates": [-23.918038252476798, -6.282017062674372]}}]}